KINEIS-1B               
1 60079U 24114A   26188.46097919  .00000682  00000+0  95679-4 0  9999
2 60079  97.9826 212.5496 0003454  55.1098 305.0438 14.80658752110403
KINEIS-1C               
1 60081U 24114C   26188.49462067  .00000640  00000+0  90137-4 0  9993
2 60081  97.9841 212.4366 0002500 104.4870 255.6619 14.80660926110389
KINEIS-1D               
1 60082U 24114D   26188.51240230  .00000504  00000+0  79894-4 0  9999
2 60082  97.9882 208.4256 0002828 110.0214 250.1300 14.76355782110121
KINEIS-1E               
1 60083U 24114E   26188.51255966  .00000895  00000+0  12316-3 0  9990
2 60083  97.8943 211.6089 0003836 125.4761 234.6809 14.80684632110390
KINEIS-1A               
1 60084U 24114F   26188.47836612  .00000706  00000+0  98621-4 0  9994
2 60084  97.8916 211.6717 0005652  80.8267 279.3585 14.80673874110395
KINEIS-3C               
1 61220U 24172A   26188.18915972  .00001535  00000+0  25036-3 0  9996
2 61220  98.0430 277.8766 0002812  94.8849 265.2679 14.72354106 96011
KINEIS-3D               
1 61221U 24172B   26188.11446300  .00001554  00000+0  25341-3 0  9994
2 61221  98.0427 277.8129 0002624  94.4977 265.6530 14.72355741 96285
KINEIS-3E               
1 61222U 24172C   26188.50520793  .00001383  00000+0  22663-3 0  9991
2 61222  98.0423 278.1812 0001884  94.8990 265.2432 14.72323692 96345
KINEIS-3A               
1 61223U 24172D   26188.48862889  .00001421  00000+0  23272-3 0  9994
2 61223  98.0419 278.2632 0002681  58.1320 302.0148 14.72293519 95761
KINEIS-3B               
1 61224U 24172E   26188.19933164  .00001442  00000+0  23614-3 0  9991
2 61224  98.0412 278.0002 0002209  46.7741 313.3650 14.72278926 96297
KINEIS-5C               
1 62081U 24219A   26188.51645067  .00000534  00000+0  92105-4 0  9996
2 62081  97.9060 346.8059 0003511 197.6792 162.4294 14.72307797 86746
KINEIS-5D               
1 62082U 24219B   26188.47593700  .00000785  00000+0  13130-3 0  9996
2 62082  97.9171 346.8217 0004636 191.3784 168.7320 14.72483870 86743
KINEIS-5E               
1 62083U 24219C   26188.49274914  .00000510  00000+0  88385-4 0  9993
2 62083  97.9016 346.8814 0006135 188.3558 171.7549 14.72292775 86756
KINEIS-5A               
1 62084U 24219D   26187.45123198  .00001205  00000+0  19839-3 0  9995
2 62084  97.8957 346.1558 0003140 233.6875 126.4043 14.72289083 86605
KINEIS-5B               
1 62085U 24219E   26188.48815818  .00000902  00000+0  13108-3 0  9993
2 62085  98.0082 352.2066 0001937 161.1830 198.9452 14.78374336 87003
KINEIS-2C               
1 62929U 25028B   26188.15101484  .00001402  00000+0  22406-3 0  9997
2 62929  98.1233 242.5660 0003576 181.8671 178.2524 14.73413024 75554
